#cP2009 12 14  0  0  0.00000000      96     U IGS05 FIT  EMR
## 1562 086400.00000000   900.00000000 55179 0.0000000000000                    
+   31   G01G02G03G04G05G06G07G08G09G10G11G12G13G14G15G16G17
+        G18G19G20G21G22G23G25G26G27G28G29G30G31G32 00 00 00
+         00 00 00 00 00 00 00 00 00 00 00 00 00 00 00 00 00
+         00 00 00 00 00 00 00 00 00 00 00 00 00 00 00 00 00
+         00 00 00 00 00 00 00 00 00 00 00 00 00 00 00 00 00
++         5  5  5  5  5  5  5  5  5  5  5  5  5  5  5  5  5                    
++         5  5  5  5  5  5  5  5  5  5  5  5  5  5  0  0  0                    
++         0  0  0  0  0  0  0  0  0  0  0  0  0  0  0  0  0                    
++         0  0  0  0  0  0  0  0  0  0  0  0  0  0  0  0  0                    
++         0  0  0  0  0  0  0  0  0  0  0  0  0  0  0  0  0                    
%c G  cc GPS ccc cccc cccc cccc cccc ccccc ccccc ccccc ccccc
%c cc cc ccc ccc cccc cccc cccc cccc ccccc ccccc ccccc ccccc                    
%f  1.2500000  1.025000000  0.00000000000  0.000000000000000
%f  0.0000000  0.000000000  0.00000000000  0.000000000000000                    
%i    0    0    0    0      0      0      0      0         0                    
%i    0    0    0    0      0      0      0      0         0                    
/* CCCCCCCCCCCCCCCCCCCCCCCCCCCCCCCCCCCCCCCCCCCCCCCCCCCCCCCCC                    
/* CCCCCCCCCCCCCCCCCCCCCCCCCCCCCCCCCCCCCCCCCCCCCCCCCCCCCCCCC                    
/* CCCCCCCCCCCCCCCCCCCCCCCCCCCCCCCCCCCCCCCCCCCCCCCCCCCCCCCCC                    
/* PCV:IGS05_1454 OL/AL:FES2004  NONE     YN ORB:CoN CLK:CoN                    
*  2009 12 14 23 15  0.00000000                                                 
PG01  -8660.603012 -16659.726421 -18927.336422    -71.430232                    
PG02  22075.618888 -11141.671655  -9151.496113    203.626398                    
PG03 -13421.031379   8957.441879  20708.120982    488.024272                    
PG04  19986.345825   -250.137843 -17826.137247   -407.171400                    
PG05  20895.315530  -4717.077722  15739.828928    -28.854101                    
PG06 -15105.038334   4981.766959  21445.770037    263.543627                    
PG07   1353.612024  17220.751270  20122.846144      5.983449                    
PG08  12772.909615   8184.809940  21841.866205      0.891257                    
PG09  14103.976263 -21098.288028  -8401.211099     94.038864                    
PG10  23741.977248   -549.862637  12066.909704    -30.371786                    
PG11  -8413.047667  23618.458480  -8449.702652    -34.284300                    
PG12   6126.110082 -13739.157957 -21830.703733   -176.507449                    
PG13   5633.012908  25748.163808   3086.308258    306.574331                    
PG14 -13693.716523 -15293.294861 -16783.867789    -12.128968                    
PG15   9334.252571 -17036.584825  18099.891996   -317.909366                    
PG16 -24626.852940  -1432.060999  10218.997066    -19.452444                    
PG17  14729.553999  14174.803962 -16993.671953    111.908559                    
PG18 -14485.743337 -16892.006560  15024.112416     34.725782                    
PG19  -9698.277431  17949.720938  16888.373601     -3.957724                    
PG20  -1001.437594  15975.976615 -21329.756841     65.459704                    
PG21  -7147.105568 -14603.195486  21224.291538    -27.562085                    
PG22 -23149.522951 -12251.231085   4811.795792    183.982758                    
PG23  -1210.115271  24885.444385  -8782.975777    384.390674                    
PG25  -3736.603704  20679.750391  16703.425275     53.435545                    
PG26 -10511.127054 -21646.670854 -11227.247861     -2.311462                    
PG27  17009.599538 -19962.605977  -3242.937652    108.419822                    
PG28  21780.914101  13677.299865   7706.035573    -24.700520                    
PG29  -4297.500789 -26226.251221   -455.194442     82.193566                    
PG30  -6487.502177 -16626.998157 -20072.845562    201.622112                    
PG31 -20392.880681   3042.791414 -16609.478798    -58.618830                    
PG32 -10610.453345  11444.138501 -21079.776464    137.963734                    
*  2009 12 14 23 30  0.00000000                                                 
PG01  -6504.224009 -16142.388556 -20194.215527    -71.432856                    
PG02  21430.515933 -10088.142888 -11631.966489    203.630325                    
PG03 -14325.652327   6653.408272  20995.551363    488.029316                    
PG04  18563.124814   1281.369362 -19243.106798   -407.188653                    
PG05  22456.802462  -4069.332170  13638.895663    -28.849546                    
PG06 -15781.205002   2655.411525  21381.806209    263.543596                    
PG07   -344.766077  18672.884099  18815.288932      5.982832                    
PG08  10840.107606   9788.991086  22177.411601      0.891906                    
PG09  14747.664113 -21481.547936  -5656.592194     94.039664                    
PG10  24870.466353     37.562025   9621.003742    -30.373818                    
PG11  -9238.779873  24044.880628  -5896.742188    -34.286159                    
PG12   8497.419819 -12983.030111 -21485.955258   -176.502913                    
PG13   5507.783254  25972.769547    173.270138    306.573520                    
PG14 -13921.619238 -17101.479812 -14755.998153    -12.124862                    
PG15  10003.917744 -14987.662983  19510.599274   -317.908167                    
PG16 -25525.975611  -1921.353478   7605.242139    -19.456294                    
PG17  14961.883309  16008.190541 -15080.793414    111.911831                    
PG18 -12738.233576 -16518.869972  16901.807756     34.728256                    
PG19 -10186.352848  15970.977196  18537.309342     -3.959509                    
PG20  -3356.932921  15370.946021 -21528.871536     65.459312                    
PG21  -5350.474329 -16123.720216  20578.754600    -27.564316                    
PG22 -22403.686654 -12320.729904   7497.941029    183.982627                    
PG23  -1692.366664  23810.658628 -11346.578482    384.390058                    
PG25  -4980.373653  21890.953495  14687.045127     53.445887                    
PG26 -10529.614435 -22733.745386  -8590.582337     -2.313663                    
PG27  17362.590398 -20017.805432   -360.720201    108.422768                    
PG28  20808.378682  13545.338491  10310.305878    -24.699925                    
PG29  -4001.828650 -26059.442381  -3296.013297     82.196187                    
PG30  -4259.153323 -16157.937564 -21042.608395    201.624710                    
PG31 -19006.346958   1554.939432 -18333.895137    -58.618031                    
PG32 -12861.078941  10470.571599 -20304.735446    137.956399                    
*  2009 12 14 23 45  0.00000000                                                 
PG01  -4202.751760 -15712.440046 -21117.435309    -71.435240                    
PG02  20654.503618  -8807.348521 -13908.335368    203.634491                    
PG03 -15337.453933   4385.519696  20909.802354    488.032822                    
PG04  17119.966221   2985.195578 -20336.570528   -407.205346                    
PG05  23805.158920  -3560.431725  11303.955113    -28.844752                    
PG06 -16559.564142    391.073463  20955.957790    263.543196                    
PG07  -1849.911348  20092.371238  17182.149945      5.982637                    
PG08   8986.019153  11515.405227  22131.142875      0.892117                    
PG09  15166.559456 -21661.169931  -2815.800603     94.041461                    
PG10  25751.001500    492.486472   7011.460445    -30.374218                    
PG11  -9900.952755  24251.806527  -3240.757522    -34.287972                    
PG12  10848.057822 -12367.987663 -20769.117412   -176.498102                    
PG13   5319.997505  25881.629082  -2742.766037    306.573559                    
PG14 -14189.753968 -18655.084032 -12473.402572    -12.120842                    
PG15  10819.892657 -12842.597168  20585.529776   -317.907222                    
PG16 -26158.206017  -2285.687957   4862.686353    -19.460067                    
PG17  15227.248941  17603.149589 -12909.528271    111.915363                    
PG18 -10786.505687 -16184.339384  18497.865831     34.730614                    
PG19 -10810.625312  13857.118806  19865.239515     -3.961296                    
PG20  -5741.622639  14881.883985 -21361.888931     65.458397                    
PG21  -3687.377834 -17667.049812  19584.058426    -27.566649                    
PG22 -21378.266762 -12349.348882  10056.269103    183.981921                    
PG23  -2309.478956  22494.192716 -13712.026780    384.389353                    
PG25  -6011.111096  22979.771914  12425.387614     53.456280                    
PG26 -10533.711298 -23522.040362  -5804.877248     -2.315842                    
PG27  17496.907394 -19843.838805   2527.820575    108.424528                    
PG28  19560.850572  13392.485849  12743.481085    -24.699404                    
PG29  -3613.409097 -25601.129475  -6080.156916     82.199105                    
PG30  -1923.208012 -15789.505544 -21662.650525    201.626798                    
PG31 -17579.234256   -138.239373 -19738.992043    -58.617198                    
PG32 -15054.799409   9646.600654 -19166.446733    137.949185                    
EOF                                                                             
